{
  "type": "FeatureCollection",
  "features": [
    {
      "type": "Feature",
      "properties": {
        "norad_id": 66438,
        "name": "STARLINK-34681",
        "group": "last-30-days",
        "lat": -37.45886985939218,
        "lon": 25.856504883844224,
        "alt_km": 416.436974263881,
        "timestamp": "2025-12-06T22:38:41.507541+00:00",
        "meta_object_name": "STARLINK-34681",
        "meta_object_id": "2025-259S",
        "meta_epoch": "2025-12-06T13:38:30.180768",
        "meta_mean_motion": 15.5073296,
        "meta_eccentricity": 0.00018147,
        "meta_inclination": 43.0007,
        "meta_ra_of_asc_node": 83.3579,
        "meta_arg_of_pericenter": 250.1755,
        "meta_mean_anomaly": 109.8909,
        "meta_ephemeris_type": 0,
        "meta_classification_type": "U",
        "meta_norad_cat_id": 66438,
        "meta_element_set_no": 999,
        "meta_rev_at_epoch": 510,
        "meta_bstar": 0.0029956602,
        "meta_mean_motion_dot": 0.00180499,
        "meta_mean_motion_ddot": 0,
        "tle_line1": "1 66438U 25259S   25340.56840487  .00180499  00000+0  29957-2 0  9990",
        "tle_line2": "2 66438  43.0007  83.3579 0001814 250.1755 109.8909 15.50732960  5107"
      },
      "geometry": {
        "type": "Point",
        "coordinates": [
          25.856504883844224,
          -37.45886985939218
        ]
      }
    },
    {
      "type": "Feature",
      "properties": {
        "norad_id": 66439,
        "name": "STARLINK-35327",
        "group": "last-30-days",
        "lat": -39.54732520301306,
        "lon": 18.795793177803898,
        "alt_km": 416.4905484517385,
        "timestamp": "2025-12-06T22:38:41.507554+00:00",
        "meta_object_name": "STARLINK-35327",
        "meta_object_id": "2025-259T",
        "meta_epoch": "2025-12-06T13:39:59.056128",
        "meta_mean_motion": 15.5062834,
        "meta_eccentricity": 0.00019643,
        "meta_inclination": 43.0015,
        "meta_ra_of_asc_node": 83.3681,
        "meta_arg_of_pericenter": 282.6059,
        "meta_mean_anomaly": 77.4582,
        "meta_ephemeris_type": 0,
        "meta_classification_type": "U",
        "meta_norad_cat_id": 66439,
        "meta_element_set_no": 999,
        "meta_rev_at_epoch": 521,
        "meta_bstar": 0.0023321839,
        "meta_mean_motion_dot": 0.00139182,
        "meta_mean_motion_ddot": 0,
        "tle_line1": "1 66439U 25259T   25340.56943352  .00139182  00000+0  23322-2 0  9999",
        "tle_line2": "2 66439  43.0015  83.3681 0001964 282.6059  77.4582 15.50628340  5219"
      },
      "geometry": {
        "type": "Point",
        "coordinates": [
          18.795793177803898,
          -39.54732520301306
        ]
      }
    },
    {
      "type": "Feature",
      "properties": {
        "norad_id": 66440,
        "name": "STARLINK-35405",
        "group": "last-30-days",
        "lat": -36.18850758839817,
        "lon": 29.42409082775529,
        "alt_km": 415.32789363298343,
        "timestamp": "2025-12-06T22:38:41.507564+00:00",
        "meta_object_name": "STARLINK-35405",
        "meta_object_id": "2025-259U",
        "meta_epoch": "2025-12-05T08:15:37.425888",
        "meta_mean_motion": 15.50623801,
        "meta_eccentricity": 0.00020429,
        "meta_inclination": 43.0001,
        "meta_ra_of_asc_node": 90.5135,
        "meta_arg_of_pericenter": 280.0264,
        "meta_mean_anomaly": 80.0366,
        "meta_ephemeris_type": 0,
        "meta_classification_type": "U",
        "meta_norad_cat_id": 66440,
        "meta_element_set_no": 999,
        "meta_rev_at_epoch": 502,
        "meta_bstar": 0.0023681414,
        "meta_mean_motion_dot": 0.0014135,
        "meta_mean_motion_ddot": 0,
        "tle_line1": "1 66440U 25259U   25339.34418317  .00141350  00000+0  23681-2 0  9991",
        "tle_line2": "2 66440  43.0001  90.5135 0002042 280.0264  80.0366 15.50623801  5024"
      },
      "geometry": {
        "type": "Point",
        "coordinates": [
          29.42409082775529,
          -36.18850758839817
        ]
      }
    },
    {
      "type": "Feature",
      "properties": {
        "norad_id": 66441,
        "name": "STARLINK-35426",
        "group": "last-30-days",
        "lat": -35.244542629154495,
        "lon": 31.834016393409264,
        "alt_km": 414.82094522990883,
        "timestamp": "2025-12-06T22:38:41.507574+00:00",
        "meta_object_name": "STARLINK-35426",
        "meta_object_id": "2025-259V",
        "meta_epoch": "2025-12-05T08:15:07.746624",
        "meta_mean_motion": 15.50636009,
        "meta_eccentricity": 0.00024039,
        "meta_inclination": 43,
        "meta_ra_of_asc_node": 90.5091,
        "meta_arg_of_pericenter": 280.7143,
        "meta_mean_anomaly": 79.3447,
        "meta_ephemeris_type": 0,
        "meta_classification_type": "U",
        "meta_norad_cat_id": 66441,
        "meta_element_set_no": 999,
        "meta_rev_at_epoch": 502,
        "meta_bstar": 0.0027168775,
        "meta_mean_motion_dot": 0.00162736,
        "meta_mean_motion_ddot": 0,
        "tle_line1": "1 66441U 25259V   25339.34383966  .00162736  00000+0  27169-2 0  9999",
        "tle_line2": "2 66441  43.0000  90.5091 0002403 280.7143  79.3447 15.50636009  5024"
      },
      "geometry": {
        "type": "Point",
        "coordinates": [
          31.834016393409264,
          -35.244542629154495
        ]
      }
    },
    {
      "type": "Feature",
      "properties": {
        "norad_id": 66442,
        "name": "STARLINK-34724",
        "group": "last-30-days",
        "lat": -35.038538965287444,
        "lon": 32.342519830745815,
        "alt_km": 416.4504909663219,
        "timestamp": "2025-12-06T22:38:41.507584+00:00",
        "meta_object_name": "STARLINK-34724",
        "meta_object_id": "2025-259W",
        "meta_epoch": "2025-12-06T13:37:01.226784",
        "meta_mean_motion": 15.50746054,
        "meta_eccentricity": 0.00014223,
        "meta_inclination": 43.0003,
        "meta_ra_of_asc_node": 83.3503,
        "meta_arg_of_pericenter": 255.0351,
        "meta_mean_anomaly": 105.0352,
        "meta_ephemeris_type": 0,
        "meta_classification_type": "U",
        "meta_norad_cat_id": 66442,
        "meta_element_set_no": 999,
        "meta_rev_at_epoch": 521,
        "meta_bstar": 0.0031841465,
        "meta_mean_motion_dot": 0.00192258,
        "meta_mean_motion_ddot": 0,
        "tle_line1": "1 66442U 25259W   25340.56737531  .00192258  00000+0  31841-2 0  9991",
        "tle_line2": "2 66442  43.0003  83.3503 0001422 255.0351 105.0352 15.50746054  5217"
      },
      "geometry": {
        "type": "Point",
        "coordinates": [
          32.342519830745815,
          -35.038538965287444
        ]
      }
    },
    {
      "type": "Feature",
      "properties": {
        "norad_id": 66443,
        "name": "STARLINK-35219",
        "group": "last-30-days",
        "lat": -34.17925257293888,
        "lon": 34.36590400977858,
        "alt_km": 416.6058224439548,
        "timestamp": "2025-12-06T22:38:41.507593+00:00",
        "meta_object_name": "STARLINK-35219",
        "meta_object_id": "2025-259X",
        "meta_epoch": "2025-12-06T13:36:31.548384",
        "meta_mean_motion": 15.50724046,
        "meta_eccentricity": 0.00015671,
        "meta_inclination": 43.0012,
        "meta_ra_of_asc_node": 83.3472,
        "meta_arg_of_pericenter": 246.0575,
        "meta_mean_anomaly": 114.0122,
        "meta_ephemeris_type": 0,
        "meta_classification_type": "U",
        "meta_norad_cat_id": 66443,
        "meta_element_set_no": 999,
        "meta_rev_at_epoch": 510,
        "meta_bstar": 0.0027615281,
        "meta_mean_motion_dot": 0.00166001,
        "meta_mean_motion_ddot": 0,
        "tle_line1": "1 66443U 25259X   25340.56703181  .00166001  00000+0  27615-2 0  9997",
        "tle_line2": "2 66443  43.0012  83.3472 0001567 246.0575 114.0122 15.50724046  5101"
      },
      "geometry": {
        "type": "Point",
        "coordinates": [
          34.36590400977858,
          -34.17925257293888
        ]
      }
    },
    {
      "type": "Feature",
      "properties": {
        "norad_id": 66444,
        "name": "STARLINK-35360",
        "group": "last-30-days",
        "lat": -31.335851346826978,
        "lon": 40.332085186712675,
        "alt_km": 416.3208377515575,
        "timestamp": "2025-12-06T22:38:41.507605+00:00",
        "meta_object_name": "STARLINK-35360",
        "meta_object_id": "2025-259Y",
        "meta_epoch": "2025-12-06T13:35:02.691168",
        "meta_mean_motion": 15.50741615,
        "meta_eccentricity": 0.00016982,
        "meta_inclination": 43.0009,
        "meta_ra_of_asc_node": 83.3383,
        "meta_arg_of_pericenter": 249.9829,
        "meta_mean_anomaly": 110.0848,
        "meta_ephemeris_type": 0,
        "meta_classification_type": "U",
        "meta_norad_cat_id": 66444,
        "meta_element_set_no": 999,
        "meta_rev_at_epoch": 521,
        "meta_bstar": 0.0031292047,
        "meta_mean_motion_dot": 0.00188821,
        "meta_mean_motion_ddot": 0,
        "tle_line1": "1 66444U 25259Y   25340.56600337  .00188821  00000+0  31292-2 0  9997",
        "tle_line2": "2 66444  43.0009  83.3383 0001698 249.9829 110.0848 15.50741615  5212"
      },
      "geometry": {
        "type": "Point",
        "coordinates": [
          40.332085186712675,
          -31.335851346826978
        ]
      }
    }
  ]
}